COSMOS 2251 DEB         
1 35837U 93036ATK 17342.22669134 -.00000475  00000-0 -37157-3 0  9991
2 35837  73.7367 281.3114 0491994 252.4976 175.6574 13.44370992420926
